{
    "links": {
        "self": "http://www.neowsapp.com/rest/v1/neo/3696407?api_key=iIulBulltgU6a56xZRHN4H3l9WmuAYTsLGpBGhQ2"
    },
    "id": "3696407",
    "neo_reference_id": "3696407",
    "name": "(2014 WR6)",
    "designation": "2014 WR6",
    "nasa_jpl_url": "http://ssd.jpl.nasa.gov/sbdb.cgi?sstr=3696407",
    "absolute_magnitude_h": 25.3,
    "estimated_diameter": {
        "kilometers": {
            "estimated_diameter_min": 0.0231502122,
            "estimated_diameter_max": 0.0517654482
        },
        "meters": {
            "estimated_diameter_min": 23.150212221,
            "estimated_diameter_max": 51.7654482198
        },
        "miles": {
            "estimated_diameter_min": 0.0143848705,
            "estimated_diameter_max": 0.0321655483
        },
        "feet": {
            "estimated_diameter_min": 75.9521422633,
            "estimated_diameter_max": 169.8341531374
        }
    },
    "is_potentially_hazardous_asteroid": false,
    "close_approach_data": [
        {
            "close_approach_date": "1936-11-02",
            "close_approach_date_full": "1936-Nov-02 20:57",
            "epoch_date_close_approach": -1046487780000,
            "relative_velocity": {
                "kilometers_per_second": "13.2245136813",
                "kilometers_per_hour": "47608.2492527156",
                "miles_per_hour": "29581.9146537221"
            },
            "miss_distance": {
                "astronomical": "0.262074621",
                "lunar": "101.947027569",
                "kilometers": "39205805.08265727",
                "miles": "24361357.627199526"
            },
            "orbiting_body": "Earth"
        },
        {
            "close_approach_date": "2013-01-16",
            "close_approach_date_full": "2013-Jan-16 22:11",
            "epoch_date_close_approach": 1358374260000,
            "relative_velocity": {
                "kilometers_per_second": "11.8314062655",
                "kilometers_per_hour": "42593.062555706",
                "miles_per_hour": "26465.6726752386"
            },
            "miss_distance": {
                "astronomical": "0.2892767888",
                "lunar": "112.5286708432",
                "kilometers": "43275191.444919856",
                "miles": "26889957.0599957728"
            },
            "orbiting_body": "Earth"
        },
        {
            "close_approach_date": "2014-11-27",
            "close_approach_date_full": "2014-Nov-27 20:19",
            "epoch_date_close_approach": 1417119540000,
            "relative_velocity": {
                "kilometers_per_second": "6.9166222183",
                "kilometers_per_hour": "24899.8399859281",
                "miles_per_hour": "15471.7922401451"
            },
            "miss_distance": {
                "astronomical": "0.0453223117",
                "lunar": "17.6303792513",
                "kilometers": "6780121.293796079",
                "miles": "4212972.0138567302"
            },
            "orbiting_body": "Earth"
        },
        {
            "close_approach_date": "2016-11-01",
            "close_approach_date_full": "2016-Nov-01 22:11",
            "epoch_date_close_approach": 1478038260000,
            "relative_velocity": {
                "kilometers_per_second": "13.9892969513",
                "kilometers_per_hour": "50361.4690247174",
                "miles_per_hour": "31292.6583503862"
            },
            "miss_distance": {
                "astronomical": "0.2900270197",
                "lunar": "112.8205106633",
                "kilometers": "43387424.389568039",
                "miles": "26959695.3779913782"
            },
            "orbiting_body": "Earth"
        }
    ],
    "orbital_data": {
        "orbit_id": "5",
        "orbit_determination_date": "2017-04-06 08:37:27",
        "first_observation_date": "2014-11-18",
        "last_observation_date": "2014-11-26",
        "data_arc_in_days": 8,
        "observations_used": 36,
        "orbit_uncertainty": "7",
        "minimum_orbit_intersection": ".0443165",
        "jupiter_tisserand_invariant": "4.342",
        "epoch_osculation": "2459000.5",
        "eccentricity": ".3542381953411994",
        "semi_major_axis": "1.562075348036845",
        "inclination": "9.520103030299833",
        "ascending_node_longitude": "56.77869831934841",
        "orbital_period": "713.1015735689655",
        "perihelion_distance": "1.008728595761297",
        "perihelion_argument": "27.60177354873329",
        "aphelion_distance": "2.115422100312392",
        "perihelion_time": "2459146.711617753182",
        "mean_anomaly": "286.186977645121",
        "mean_motion": ".5048369171284456",
        "equinox": "J2000",
        "orbit_class": {
            "orbit_class_type": "APO",
            "orbit_class_description": "Near-Earth asteroid orbits which cross the Earth’s orbit similar to that of 1862 Apollo",
            "orbit_class_range": "a (semi-major axis) > 1.0 AU; q (perihelion) < 1.017 AU"
        }
    },
    "is_sentry_object": false
}